{
  "type": "FeatureCollection",
  "features": [
    {
      "type": "Feature",
      "properties": {
        "norad_id": 36216,
        "name": "FENGYUN 1C DEB",
        "group": "fengyun-1c-debris",
        "lat": 36.885483955797184,
        "lon": 2.4070676807698463,
        "alt_km": 797.1211950665956,
        "timestamp": "2025-12-14T18:52:55.791549+00:00",
        "meta_object_name": "FENGYUN 1C DEB",
        "meta_object_id": "1999-025DUR",
        "meta_epoch": "2025-12-09T18:32:38.416704",
        "meta_mean_motion": 14.18849305,
        "meta_eccentricity": 0.00451569,
        "meta_inclination": 98.6092,
        "meta_ra_of_asc_node": 4.0664,
        "meta_arg_of_pericenter": 26.4592,
        "meta_mean_anomaly": 333.8876,
        "meta_ephemeris_type": 0,
        "meta_classification_type": "U",
        "meta_norad_cat_id": 36216,
        "meta_element_set_no": 999,
        "meta_rev_at_epoch": 64330,
        "meta_bstar": 0.00051766748,
        "meta_mean_motion_dot": 1.046e-05,
        "meta_mean_motion_ddot": 0,
        "tle_line1": "1 36216U 99025DUR 25343.77266686  .00001046  00000+0  51767-3 0  9997",
        "tle_line2": "2 36216  98.6092   4.0664 0045156  26.4592 333.8876 14.18849305643300"
      },
      "geometry": {
        "type": "Point",
        "coordinates": [
          2.4070676807698463,
          36.885483955797184
        ]
      }
    },
    {
      "type": "Feature",
      "properties": {
        "norad_id": 36218,
        "name": "FENGYUN 1C DEB",
        "group": "fengyun-1c-debris",
        "lat": -35.28171487267207,
        "lon": -163.47979768096783,
        "alt_km": 621.9333636878073,
        "timestamp": "2025-12-14T18:52:55.791559+00:00",
        "meta_object_name": "FENGYUN 1C DEB",
        "meta_object_id": "1999-025DUT",
        "meta_epoch": "2025-12-12T19:42:04.442400",
        "meta_mean_motion": 14.70989932,
        "meta_eccentricity": 0.0072811,
        "meta_inclination": 99.0771,
        "meta_ra_of_asc_node": 187.8366,
        "meta_arg_of_pericenter": 295.4261,
        "meta_mean_anomaly": 63.9419,
        "meta_ephemeris_type": 0,
        "meta_classification_type": "U",
        "meta_norad_cat_id": 36218,
        "meta_element_set_no": 999,
        "meta_rev_at_epoch": 59144,
        "meta_bstar": 0.0015985689,
        "meta_mean_motion_dot": 0.00010165,
        "meta_mean_motion_ddot": 0,
        "tle_line1": "1 36218U 99025DUT 25346.82088475  .00010165  00000+0  15986-2 0  9990",
        "tle_line2": "2 36218  99.0771 187.8366 0072811 295.4261  63.9419 14.70989932591449"
      },
      "geometry": {
        "type": "Point",
        "coordinates": [
          -163.47979768096783,
          -35.28171487267207
        ]
      }
    },
    {
      "type": "Feature",
      "properties": {
        "norad_id": 36224,
        "name": "FENGYUN 1C DEB",
        "group": "fengyun-1c-debris",
        "lat": -46.67199399955667,
        "lon": -153.34645898187338,
        "alt_km": 895.9049810090592,
        "timestamp": "2025-12-14T18:52:55.791569+00:00",
        "meta_object_name": "FENGYUN 1C DEB",
        "meta_object_id": "1999-025DUZ",
        "meta_epoch": "2025-12-13T21:24:20.950560",
        "meta_mean_motion": 14.12763024,
        "meta_eccentricity": 0.01145202,
        "meta_inclination": 98.7802,
        "meta_ra_of_asc_node": 35.2064,
        "meta_arg_of_pericenter": 348.72,
        "meta_mean_anomaly": 11.1408,
        "meta_ephemeris_type": 0,
        "meta_classification_type": "U",
        "meta_norad_cat_id": 36224,
        "meta_element_set_no": 999,
        "meta_rev_at_epoch": 64448,
        "meta_bstar": 0.0001447508,
        "meta_mean_motion_dot": 2.42e-06,
        "meta_mean_motion_ddot": 0,
        "tle_line1": "1 36224U 99025DUZ 25347.89190915  .00000242  00000+0  14475-3 0  9996",
        "tle_line2": "2 36224  98.7802  35.2064 0114520 348.7200  11.1408 14.12763024644481"
      },
      "geometry": {
        "type": "Point",
        "coordinates": [
          -153.34645898187338,
          -46.67199399955667
        ]
      }
    },
    {
      "type": "Feature",
      "properties": {
        "norad_id": 36225,
        "name": "FENGYUN 1C DEB",
        "group": "fengyun-1c-debris",
        "lat": -42.17136153988074,
        "lon": 118.56432468535303,
        "alt_km": 528.716807627904,
        "timestamp": "2025-12-14T18:52:55.791580+00:00",
        "meta_object_name": "FENGYUN 1C DEB",
        "meta_object_id": "1999-025DVA",
        "meta_epoch": "2025-12-11T03:22:25.516704",
        "meta_mean_motion": 15.05886228,
        "meta_eccentricity": 0.00436396,
        "meta_inclination": 98.8181,
        "meta_ra_of_asc_node": 106.3139,
        "meta_arg_of_pericenter": 296.8088,
        "meta_mean_anomaly": 62.8675,
        "meta_ephemeris_type": 0,
        "meta_classification_type": "U",
        "meta_norad_cat_id": 36225,
        "meta_element_set_no": 999,
        "meta_rev_at_epoch": 66748,
        "meta_bstar": 0.0037986718,
        "meta_mean_motion_dot": 0.00056719,
        "meta_mean_motion_ddot": 0,
        "tle_line1": "1 36225U 99025DVA 25345.14057311  .00056719  00000+0  37987-2 0  9997",
        "tle_line2": "2 36225  98.8181 106.3139 0043639 296.8088  62.8675 15.05886228667484"
      },
      "geometry": {
        "type": "Point",
        "coordinates": [
          118.56432468535303,
          -42.17136153988074
        ]
      }
    },
    {
      "type": "Feature",
      "properties": {
        "norad_id": 36226,
        "name": "FENGYUN 1C DEB",
        "group": "fengyun-1c-debris",
        "lat": 3.6661448515422497,
        "lon": 30.650609237996026,
        "alt_km": 792.6454312673641,
        "timestamp": "2025-12-14T18:52:55.791590+00:00",
        "meta_object_name": "FENGYUN 1C DEB",
        "meta_object_id": "1999-025DVB",
        "meta_epoch": "2025-12-05T08:24:08.459424",
        "meta_mean_motion": 14.10238341,
        "meta_eccentricity": 0.00958599,
        "meta_inclination": 98.6088,
        "meta_ra_of_asc_node": 22.1717,
        "meta_arg_of_pericenter": 41.8631,
        "meta_mean_anomaly": 318.982,
        "meta_ephemeris_type": 0,
        "meta_classification_type": "U",
        "meta_norad_cat_id": 36226,
        "meta_element_set_no": 999,
        "meta_rev_at_epoch": 63658,
        "meta_bstar": 0.0024391454,
        "meta_mean_motion_dot": 4.471e-05,
        "meta_mean_motion_ddot": 0,
        "tle_line1": "1 36226U 99025DVB 25339.35009791  .00004471  00000+0  24391-2 0  9996",
        "tle_line2": "2 36226  98.6088  22.1717 0095859  41.8631 318.9820 14.10238341636585"
      },
      "geometry": {
        "type": "Point",
        "coordinates": [
          30.650609237996026,
          3.6661448515422497
        ]
      }
    },
    {
      "type": "Feature",
      "properties": {
        "norad_id": 36229,
        "name": "FENGYUN 1C DEB",
        "group": "fengyun-1c-debris",
        "lat": 68.82361567419329,
        "lon": 58.887049486517896,
        "alt_km": 788.7147574902119,
        "timestamp": "2025-12-14T18:52:55.791612+00:00",
        "meta_object_name": "FENGYUN 1C DEB",
        "meta_object_id": "1999-025DVE",
        "meta_epoch": "2025-12-13T08:14:45.074400",
        "meta_mean_motion": 14.07195739,
        "meta_eccentricity": 0.01025541,
        "meta_inclination": 100.9257,
        "meta_ra_of_asc_node": 207.239,
        "meta_arg_of_pericenter": 120.9915,
        "meta_mean_anomaly": 240.137,
        "meta_ephemeris_type": 0,
        "meta_classification_type": "U",
        "meta_norad_cat_id": 36229,
        "meta_element_set_no": 999,
        "meta_rev_at_epoch": 63264,
        "meta_bstar": 0.0024305202,
        "meta_mean_motion_dot": 4.215e-05,
        "meta_mean_motion_ddot": 0,
        "tle_line1": "1 36229U 99025DVE 25347.34357725  .00004215  00000+0  24305-2 0  9991",
        "tle_line2": "2 36229 100.9257 207.2390 0102554 120.9915 240.1370 14.07195739632649"
      },
      "geometry": {
        "type": "Point",
        "coordinates": [
          58.887049486517896,
          68.82361567419329
        ]
      }
    },
    {
      "type": "Feature",
      "properties": {
        "norad_id": 36230,
        "name": "FENGYUN 1C DEB",
        "group": "fengyun-1c-debris",
        "lat": 79.3954334802349,
        "lon": -52.377836085849744,
        "alt_km": 853.2769052921403,
        "timestamp": "2025-12-14T18:52:55.791623+00:00",
        "meta_object_name": "FENGYUN 1C DEB",
        "meta_object_id": "1999-025DVF",
        "meta_epoch": "2025-12-13T10:59:42.315360",
        "meta_mean_motion": 13.7527667,
        "meta_eccentricity": 0.02170894,
        "meta_inclination": 99.5244,
        "meta_ra_of_asc_node": 62.57,
        "meta_arg_of_pericenter": 140.2916,
        "meta_mean_anomaly": 221.4354,
        "meta_ephemeris_type": 0,
        "meta_classification_type": "U",
        "meta_norad_cat_id": 36230,
        "meta_element_set_no": 999,
        "meta_rev_at_epoch": 61896,
        "meta_bstar": 0.0027661722,
        "meta_mean_motion_dot": 3.107e-05,
        "meta_mean_motion_ddot": 0,
        "tle_line1": "1 36230U 99025DVF 25347.45812865  .00003107  00000+0  27662-2 0  9994",
        "tle_line2": "2 36230  99.5244  62.5700 0217089 140.2916 221.4354 13.75276670618964"
      },
      "geometry": {
        "type": "Point",
        "coordinates": [
          -52.377836085849744,
          79.3954334802349
        ]
      }
    }
  ]
}